STARLINK-2022           
1 47643U 21012Z   24023.95803609  .00013342  00000+0  91239-3 0  9990
2 47643  53.0539 294.0071 0001779  54.2074 305.9080 15.06419110163340
